[Satellite]
VERSION=1.1
NAME=INTELSAT 22 (IS-22)
NICKNAME=INTELSAT 22 (IS-22)
TLE1=1 38098U 12011A   15053.58287906 -.00000084  00000-0  00000+0 0  9994
TLE2=2 38098   0.0307   6.3733 0001715 333.6714  94.0369  1.00272830 10660
